[{"OBJECT_NAME":"STARLINK-30301","OBJECT_ID":"2023-124D","EPOCH":"2026-03-09T20:07:07.315104","MEAN_MOTION":15.30192729,"ECCENTRICITY":9.98e-5,"INCLINATION":53.1605,"RA_OF_ASC_NODE":268.0492,"ARG_OF_PERICENTER":102.3567,"MEAN_ANOMALY":257.7546,"EPHEMERIS_TYPE":0,"CLASSIFICATION_TYPE":"U","NORAD_CAT_ID":57666,"ELEMENT_SET_NO":999,"REV_AT_EPOCH":14269,"BSTAR":3.5957601e-5,"MEAN_MOTION_DOT":7.06e-6,"MEAN_MOTION_DDOT":0},{"OBJECT_NAME":"LYNK TOWER 6","OBJECT_ID":"2024-043AB","EPOCH":"2026-03-09T21:28:38.303328","MEAN_MOTION":15.29548678,"ECCENTRICITY":0.00097492,"INCLINATION":97.5426,"RA_OF_ASC_NODE":204.1954,"ARG_OF_PERICENTER":232.0253,"MEAN_ANOMALY":128.0107,"EPHEMERIS_TYPE":0,"CLASSIFICATION_TYPE":"U","NORAD_CAT_ID":59123,"ELEMENT_SET_NO":999,"REV_AT_EPOCH":11184,"BSTAR":0.00040142146,"MEAN_MOTION_DOT":0.0001144,"MEAN_MOTION_DDOT":0}]
